norad_id,name,regime,epoch,line1,line2,inclination,eccentricity,mean_motion,raan,arg_pericenter,mean_anomaly
25049,SIRIUS 2 (GE-1E),GEO,22201.29490433,1 25049U 97071A   22201.29490433 -.00000190  00000-0  00000-0 0    10\,2 25049   9.5951  43.7779 0007241  50.0951 305.6625  0.99408371 89928,9.5951,0.0007241,0.99408371,43.7779,50.0951,305.6625
25049,SIRIUS 2 (GE-1E),GEO,22201.86853730,1 25049U 97071A   22201.86853730 -.00000198  00000-0  00000-0 0    14\,2 25049   9.5961  43.7744 0007232  50.3551 150.6960  0.99408437 89934,9.5961,0.0007232,0.99408437,43.7744,50.3551,150.696
25049,SIRIUS 2 (GE-1E),GEO,22202.37044786,1 25049U 97071A   22202.37044786 -.00000205  00000-0  00000-0 0    13\,2 25049   9.5968  43.7713 0007219  50.7164 329.9579  0.99408426 89942,9.5968,0.0007219,0.99408426,43.7713,50.7164,329.9579
25049,SIRIUS 2 (GE-1E),GEO,22202.80743797,1 25049U 97071A   22202.80743797 -.00000211  00000-0  00000-0 0    16\,2 25049   9.5975  43.7687 0007215  50.8398 126.2253  0.99408440 89949,9.5975,0.0007215,0.9940844,43.7687,50.8398,126.2253
25049,SIRIUS 2 (GE-1E),GEO,22203.23521662,1 25049U 97071A   22203.23521662 -.00000217  00000-0  00000-0 0    15\,2 25049   9.5982  43.7661 0007209  51.1151 279.0437  0.99408433 89946,9.5982,0.0007209,0.99408433,43.7661,51.1151,279.0437
25049,SIRIUS 2 (GE-1E),GEO,22203.30242738,1 25049U 97071A   22203.30242738 -.00000218  00000-0  00000+0 0   646\,2 25049   9.5983  43.7656 0007206  51.1599 303.0522  0.99408427 90032,9.5983,0.0007206,0.99408427,43.7656,51.1599,303.0522
25049,SIRIUS 2 (GE-1E),GEO,22203.82201892,1 25049U 97071A   22203.82201892 -.00000224  00000-0  00000-0 0    18\,2 25049   9.5991  43.7625 0007198  51.3586 128.8068  0.99408443 89950,9.5991,0.0007198,0.99408443,43.7625,51.3586,128.8068
25049,SIRIUS 2 (GE-1E),GEO,22204.37790309,1 25049U 97071A   22204.37790309 -.00000231  00000-0  00000-0 0    13\,2 25049   9.6000  43.7591 0007182  51.7357 327.3697  0.99408402 89967,9.6,0.0007182,0.99408402,43.7591,51.7357,327.3697
25049,SIRIUS 2 (GE-1E),GEO,22204.85257696,1 25049U 97071A   22204.85257696 -.00000236  00000-0  00000-0 0    18\,2 25049   9.6008  43.7562 0007175  51.9304 137.0527  0.99408393 89966,9.6008,0.0007175,0.99408393,43.7562,51.9304,137.0527
25049,SIRIUS 2 (GE-1E),GEO,22205.31016872,1 25049U 97071A   22205.31016872 -.00000241  00000-0  00000-0 0    15\,2 25049   9.6015  43.7534 0007160  52.2429 300.5036  0.99408350 89964,9.6015,0.000716,0.9940835,43.7534,52.2429,300.5036
25049,SIRIUS 2 (GE-1E),GEO,22206.38563789,1 25049U 97071A   22206.38563789 -.00000251  00000-0  00000-0 0    18\,2 25049   9.6033  43.7469 0007132  52.8078 324.8281  0.99408214 89988,9.6033,0.0007132,0.99408214,43.7469,52.8078,324.8281
25049,SIRIUS 2 (GE-1E),GEO,22206.81595951,1 25049U 97071A   22206.81595951 -.00000254  00000-0  00000-0 0    15\,2 25049   9.6040  43.7442 0007125  52.9688 118.6706  0.99408143 89989,9.604,0.0007125,0.99408143,43.7442,52.9688,118.6706
25049,SIRIUS 2 (GE-1E),GEO,22207.31792591,1 25049U 97071A   22207.31792591 -.00000258  00000-0  00000-0 0    14\,2 25049   9.6048  43.7412 0007109  53.2754 298.0077  0.99408059 89984,9.6048,0.0007109,0.99408059,43.7412,53.2754,298.0077
25049,SIRIUS 2 (GE-1E),GEO,22208.39337900,1 25049U 97071A   22208.39337900 -.00000264  00000-0  00000-0 0    19\,2 25049   9.6066  43.7346 0007076  53.7740 322.3920  0.99407852 90006,9.6066,0.0007076,0.99407852,43.7346,53.774,322.392
25049,SIRIUS 2 (GE-1E),GEO,22208.89528788,1 25049U 97071A   22208.89528788 -.00000266  00000-0  00000-0 0    12\,2 25049   9.6074  43.7314 0007063  54.0354 141.7541  0.99407761 90002,9.6074,0.0007063,0.99407761,43.7314,54.0354,141.7541
25049,SIRIUS 2 (GE-1E),GEO,22209.82759380,1 25049U 97071A   22209.82759380 -.00000269  00000-0  00000-0 0    13\,2 25049   9.6090  43.7256 0007025  54.5484 114.8935  0.99407532 90017,9.609,0.0007025,0.99407532,43.7256,54.5484,114.8935
25049,SIRIUS 2 (GE-1E),GEO,22210.40112993,1 25049U 97071A   22210.40112993 -.00000270  00000-0  00000-0 0    14\,2 25049   9.6100  43.7221 0006995  54.9233 319.7742  0.99407375 90020,9.61,0.0006995,0.99407375,43.7221,54.9233,319.7742
25049,SIRIUS 2 (GE-1E),GEO,22211.36576958,1 25049U 97071A   22211.36576958 -.00000270  00000-0  00000-0 0    15\,2 25049   9.6116  43.7162 0006956  55.4494 304.4716  0.99407126 90029,9.6116,0.0006956,0.99407126,43.7162,55.4494,304.4716
25049,SIRIUS 2 (GE-1E),GEO,22211.90691229,1 25049U 97071A   22211.90691229 -.00000269  00000-0  00000+0 0   684\,2 25049   9.6125  43.7129 0006936  55.7209 137.8626  0.99406966 90116,9.6125,0.0006936,0.99406966,43.7129,55.7209,137.8626
25049,SIRIUS 2 (GE-1E),GEO,22212.40885619,1 25049U 97071A   22212.40885619 -.00000268  00000-0  00000-0 0    15\,2 25049   9.6133  43.7097 0006908  56.0237 317.1917  0.99406769 90042,9.6133,0.0006908,0.99406769,43.7097,56.0237,317.1917
25049,SIRIUS 2 (GE-1E),GEO,22212.83919557,1 25049U 97071A   22212.83919557 -.00000267  00000-0  00000-0 0    10\,2 25049   9.6140  43.7071 0006892  56.2155 111.0085  0.99406644 90044,9.614,0.0006892,0.99406644,43.7071,56.2155,111.0085
25049,SIRIUS 2 (GE-1E),GEO,22213.38035756,1 25049U 97071A   22213.38035756 -.00000265  00000-0  00000-0 0    19\,2 25049   9.6149  43.7038 0006864  56.5193 304.3733  0.99406479 90054,9.6149,0.0006864,0.99406479,43.7038,56.5193,304.3733
25049,SIRIUS 2 (GE-1E),GEO,22213.84300510,1 25049U 97071A   22213.84300510 -.00000263  00000-0  00000-0 0    11\,2 25049   9.6156  43.7010 0006846  56.7234 109.7389  0.99406320 90059,9.6156,0.0006846,0.9940632,43.701,56.7234,109.7389
25049,SIRIUS 2 (GE-1E),GEO,22213.91463914,1 25049U 97071A   22213.91463914 -.00000263  00000-0  00000+0 0   690\,2 25049   9.6157  43.7006 0006842  56.7814 135.3174  0.99406308 90137,9.6157,0.0006842,0.99406308,43.7006,56.7814,135.3174
25049,SIRIUS 2 (GE-1E),GEO,22214.41660771,1 25049U 97071A   22214.41660771 -.00000260  00000-0  00000-0 0    10\,2 25049   9.6166  43.6975 0006815  57.0618 314.6778  0.99406124 90067,9.6166,0.0006815,0.99406124,43.6975,57.0618,314.6778
25049,SIRIUS 2 (GE-1E),GEO,22214.84691962,1 25049U 97071A   22214.84691962 -.00000257  00000-0  00000-0 0    19\,2 25049   9.6173  43.6949 0006795  57.2689 108.4683  0.99405979 90064,9.6173,0.0006795,0.99405979,43.6949,57.2689,108.4683
25049,SIRIUS 2 (GE-1E),GEO,22215.42044597,1 25049U 97071A   22215.42044597 -.00000254  00000-0  00000-0 0    17\,2 25049   9.6182  43.6914 0006763  57.5801 313.4064  0.99405779 90070,9.6182,0.0006763,0.99405779,43.6914,57.5801,313.4064
25049,SIRIUS 2 (GE-1E),GEO,22215.97480012,1 25049U 97071A   22215.97480012 -.00000250  00000-0  00000+0 0   704\,2 25049   9.6191  43.6880 0006742  57.7901 151.5843  0.99405576 90152,9.6191,0.0006742,0.99405576,43.688,57.7901,151.5843
25049,SIRIUS 2 (GE-1E),GEO,22216.40552826,1 25049U 97071A   22216.40552826 -.00000247  00000-0  00000-0 0    17\,2 25049   9.6198  43.6853 0006719  58.0050 305.5143  0.99405410 90085,9.6198,0.0006719,0.9940541,43.6853,58.005,305.5143
25049,SIRIUS 2 (GE-1E),GEO,22216.98868735,1 25049U 97071A   22216.98868735 -.00000243  00000-0  00000-0 0    15\,2 25049   9.6207  43.6816 0006693  58.2425 153.9730  0.99405206 90084,9.6207,0.0006693,0.99405206,43.6816,58.2425,153.973
25049,SIRIUS 2 (GE-1E),GEO,22217.04355097,1 25049U 97071A   22217.04355097 -.00000242  00000-0  00000-0 0    14\,2 25049   9.6208  43.6813 0006690  58.2677 173.5820  0.99405188 90085,9.6208,0.000669,0.99405188,43.6813,58.2677,173.582
25049,SIRIUS 2 (GE-1E),GEO,22218.13276619,1 25049U 97071A   22218.13276619 -.00000234  00000-0  00000+0 0   714\,2 25049   9.6225  43.6743 0006640  58.7272 202.9188  0.99404760 90176,9.6225,0.000664,0.9940476,43.6743,58.7272,202.9188
25049,SIRIUS 2 (GE-1E),GEO,22218.42827323,1 25049U 97071A   22218.42827323 -.00000232  00000-0  00000-0 0    12\,2 25049   9.6230  43.6724 0006627  58.8840 308.5143  0.99404638 90109,9.623,0.0006627,0.99404638,43.6724,58.884,308.5143
25049,SIRIUS 2 (GE-1E),GEO,22219.43591234,1 25049U 97071A   22219.43591234 -.00000223  00000-0  00000-0 0    13\,2 25049   9.6246  43.6659 0006581  59.3258 308.6743  0.99404257 90116,9.6246,0.0006581,0.99404257,43.6659,59.3258,308.6743
25049,SIRIUS 2 (GE-1E),GEO,22220.41994084,1 25049U 97071A   22220.41994084 -.00000214  00000-0  00000-0 0    13\,2 25049   9.6261  43.6594 0006547  59.6581 300.4932  0.99403890 90117,9.6261,0.0006547,0.9940389,43.6594,59.6581,300.4932
25049,SIRIUS 2 (GE-1E),GEO,22221.45693303,1 25049U 97071A   22221.45693303 -.00000203  00000-0  00000-0 0    16\,2 25049   9.6278  43.6526 0006507  60.1225 311.1327  0.99403511 90137,9.6278,0.0006507,0.99403511,43.6526,60.1225,311.1327
25049,SIRIUS 2 (GE-1E),GEO,22222.44744613,1 25049U 97071A   22222.44744613 -.00000192  00000-0  00000-0 0    14\,2 25049   9.6293  43.6461 0006477  60.4855 305.2407  0.99403203 90142,9.6293,0.0006477,0.99403203,43.6461,60.4855,305.2407
25049,SIRIUS 2 (GE-1E),GEO,22223.45129601,1 25049U 97071A   22223.45129601 -.00000178  00000-0  00000-0 0    14\,2 25049   9.6309  43.6395 0006451  60.8308 304.1360  0.99402858 90157,9.6309,0.0006451,0.99402858,43.6395,60.8308,304.136
25049,SIRIUS 2 (GE-1E),GEO,22224.45515741,1 25049U 97071A   22224.45515741 -.00000163  00000-0  00000-0 0    13\,2 25049   9.6326  43.6329 0006435  61.1403 303.0669  0.99402457 90161,9.6326,0.0006435,0.99402457,43.6329,61.1403,303.0669
25049,SIRIUS 2 (GE-1E),GEO,22225.53452359,1 25049U 97071A   22225.53452359 -.00000145  00000-0  00000-0 0    18\,2 25049   9.6343  43.6259 0006401  61.6413 328.8323  0.99402225 90177,9.6343,0.0006401,0.99402225,43.6259,61.6413,328.8323
25049,SIRIUS 2 (GE-1E),GEO,22226.43705144,1 25049U 97071A   22226.43705144 -.00000129  00000-0  00000-0 0    13\,2 25049   9.6358  43.6201 0006379  62.0236 291.4277  0.99401970 90171,9.6358,0.0006379,0.9940197,43.6201,62.0236,291.4277
25049,SIRIUS 2 (GE-1E),GEO,22227.43287771,1 25049U 97071A   22227.43287771 -.00000110  00000-0  00000-0 0    15\,2 25049   9.6374  43.6138 0006360  62.4199 287.3959  0.99401716 90180,9.6374,0.000636,0.99401716,43.6138,62.4199,287.3959
